*******************************************************************************
JPL/HORIZONS               1117 Reginita (1927 KA)         2023-Sep-04 11:10:18
Rec #:    1117 (+COV) Soln.date: 2023-Aug-21_15:01:13   # obs: 4630 (1904-2023)
 
IAU76/J2000 helio. ecliptic osc. elements (au, days, deg., period=Julian yrs):
 
  EPOCH=  2457355.5 ! 2015-Nov-29.00 (TDB)         Residual RMS= .25814
   EC= .1983849261607023   QR= 1.801763164426348   TP= 2457161.0020436361
   OM= 147.1370729989609   W=  151.1646687423202   IN= 4.344841080514807
   A= 2.247666271789137    MA= 56.88809270498122   ADIST= 2.693569379151926
   PER= 3.36981            N= .29248684            ANGMOM= .025277171
   DAN= 2.61338            DDN= 1.83952            L= 298.3713559
   B= 2.0939489            MOID= .78858298         TP= 2015-May-18.5020436360
 
Asteroid physical parameters (km, seconds, rotational period in hours):
   GM= n.a.                RAD= 5.0965             ROTPER= 2.946
   H= 11.79                G= .150                 B-V= n.a.
                           ALBEDO= .293            STYP= n.a.

ASTEROID comments: 
1: soln ref.= JPL#61, OCC=0
2: source=ORB
*******************************************************************************


*******************************************************************************
Ephemeris / API_USER Mon Sep  4 11:10:18 2023 Pasadena, USA      / Horizons
*******************************************************************************
Target body name: 1117 Reginita (1927 KA)         {source: JPL#61}
Center body name: Solar System Barycenter (0)     {source: DE441}
Center-site name: BODY CENTER
*******************************************************************************
Start time      : A.D. 2023-Aug-12 00:00:00.0000 TDB
Stop  time      : A.D. 2023-Aug-13 00:00:00.0000 TDB
Step-size       : 2880 minutes
*******************************************************************************
Center geodetic : 0.0, 0.0, 0.0                   {E-lon(deg),Lat(deg),Alt(km)}
Center cylindric: 0.0, 0.0, 0.0                   {E-lon(deg),Dxy(km),Dz(km)}
Center radii    : (undefined)
Small perturbers: Yes                             {source: SB441-N16}
Output units    : KM-S
Calendar mode   : Mixed Julian/Gregorian
Output type     : GEOMETRIC cartesian states
Output format   : 2 (position and velocity)
Reference frame : Ecliptic of J2000.0
*******************************************************************************
Initial IAU76/J2000 heliocentric ecliptic osculating elements (au, days, deg.):
  EPOCH=  2457355.5 ! 2015-Nov-29.00 (TDB)         Residual RMS= .25814        
   EC= .1983849261607023   QR= 1.801763164426348   TP= 2457161.0020436361      
   OM= 147.1370729989609   W=  151.1646687423202   IN= 4.344841080514807       
  Equivalent ICRF heliocentric cartesian coordinates (au, au/d):
   X= 1.986441558110184E+00  Y= 5.905434147448525E-01  Z= 1.256064676472806E-01
  VX=-1.328501557236648E-03 VY= 1.156842432567100E-02 VZ= 4.220171634031520E-03
Asteroid physical parameters (km, seconds, rotational period in hours):        
   GM= n.a.                RAD= 5.0965             ROTPER= 2.946               
   H= 11.79                G= .150                 B-V= n.a.                   
                           ALBEDO= .293            STYP= n.a.                  
*******************************************************************************
JDTDB
   X     Y     Z
   VX    VY    VZ
*******************************************************************************
$$SOE
2460168.500000000 = A.D. 2023-Aug-12 00:00:00.0000 TDB 
 X =-1.002747968858496E+08 Y = 3.867492226892582E+08 Z =-2.056458389179896E+07
 VX=-1.607359147766799E+01 VY=-3.084791002470970E+00 VZ= 8.595750028709916E-01
$$EOE
*******************************************************************************
 
TIME

  Barycentric Dynamical Time ("TDB" or T_eph) output was requested. This
continuous coordinate time is equivalent to the relativistic proper time
of a clock at rest in a reference frame co-moving with the solar system
barycenter but outside the system's gravity well. It is the independent
variable in the solar system relativistic equations of motion.

  TDB runs at a uniform rate of one SI second per second and is independent
of irregularities in Earth's rotation.
 
CALENDAR SYSTEM

  Mixed calendar mode was active such that calendar dates after AD 1582-Oct-15
(if any) are in the modern Gregorian system. Dates prior to 1582-Oct-5 (if any)
are in the Julian calendar system, which is automatically extended for dates
prior to its adoption on 45-Jan-1 BC.  The Julian calendar is useful for
matching historical dates. The Gregorian calendar more accurately corresponds
to the Earth's orbital motion and seasons. A "Gregorian-only" calendar mode is
available if such physical events are the primary interest.

REFERENCE FRAME AND COORDINATES

  Ecliptic at the standard reference epoch

    Reference epoch: J2000.0
    X-Y plane: adopted Earth orbital plane at the reference epoch
               Note: IAU76 obliquity of 84381.448 arcseconds wrt ICRF X-Y plane
    X-axis   : ICRF
    Z-axis   : perpendicular to the X-Y plane in the directional (+ or -) sense
               of Earth's north pole at the reference epoch.

  Symbol meaning:

    JDTDB    Julian Day Number, Barycentric Dynamical Time
      X      X-component of position vector (km)
      Y      Y-component of position vector (km)
      Z      Z-component of position vector (km)
      VX     X-component of velocity vector (km/sec)                           
      VY     Y-component of velocity vector (km/sec)                           
      VZ     Z-component of velocity vector (km/sec)                           

ABERRATIONS AND CORRECTIONS

 Geometric state vectors have NO corrections or aberrations applied.

Computations by ...

    Solar System Dynamics Group, Horizons On-Line Ephemeris System
    4800 Oak Grove Drive, Jet Propulsion Laboratory
    Pasadena, CA  91109   USA

    General site: https://ssd.jpl.nasa.gov/
    Mailing list: https://ssd.jpl.nasa.gov/email_list.html
    System news : https://ssd.jpl.nasa.gov/horizons/news.html
    User Guide  : https://ssd.jpl.nasa.gov/horizons/manual.html
    Connect     : browser        https://ssd.jpl.nasa.gov/horizons/app.html#/x
                  API            https://ssd-api.jpl.nasa.gov/doc/horizons.html
                  command-line   telnet ssd.jpl.nasa.gov 6775
                  e-mail/batch   https://ssd.jpl.nasa.gov/ftp/ssd/hrzn_batch.txt
                  scripts        https://ssd.jpl.nasa.gov/ftp/ssd/SCRIPTS
    Author      : Jon.D.Giorgini@jpl.nasa.gov
*******************************************************************************
